TDRS 3                  
1 19548U 88091B   22308.47215792 -.00000308  00000+0  00000+0 0  9995
2 19548  13.6142 350.2303 0036945 327.2671 207.2712  1.00278750112147
HST                     
1 20580U 90037B   22308.74939684  .00004784  00000+0  26706-3 0  9995
2 20580  28.4709 318.8196 0002815 111.9297  50.6325 15.11189257587459
TDRS 5                  
1 21639U 91054B   22307.41788222  .00000077  00000+0  00000+0 0  9990
2 21639  14.2281   3.5609 0022371 353.8514  28.1359  1.00266059114461
TDRS 6                  
1 22314U 93003B   22308.90270043 -.00000301  00000+0  00000+0 0  9990
2 22314  14.1409   6.8032 0009037 146.6616 169.8640  1.00272921109166
TDRS 7                  
1 23613U 95035B   22308.81605449 -.00000209  00000+0  00000+0 0  9999
2 23613  13.9253 357.5041 0024302  56.5236   8.5728  1.00269142100010
ISS (ZARYA)             
1 25544U 98067A   22309.14128797  .00017023  00000+0  30799-3 0  9998
2 25544  51.6453 358.3169 0006408  42.0436  54.4506 15.49764515367049
LANDSAT 7               
1 25682U 99020A   22308.94551875  .00000574  00000+0  12925-3 0  9999
2 25682  97.9629 351.6004 0001525  92.4768 267.6622 14.59834020253068
TERRA                   
1 25994U 99068A   22308.82236924  .00000649  00000+0  14810-3 0  9997
2 25994  98.1236  17.4774 0002689  71.1470  64.2880 14.58902243216943
TDRS 8                  
1 26388U 00034A   22308.72271404 -.00000232  00000+0  00000+0 0  9992
2 26388  10.5883  41.5709 0017569 336.2728  15.0615  1.00262810 81938
TIMED                   
1 26998U 01055B   22308.28278909  .00001496  00000+0  16326-3 0  9995
2 26998  74.0736   1.0323 0002107 251.5249 108.5703 14.88919236133811
TDRS 9                  
1 27389U 02011A   22308.75637466 -.00000290  00000+0  00000+0 0  9992
2 27389   9.3171  59.5228 0024036 293.0452 261.4958  1.00271247 77208
AQUA                    
1 27424U 02022A   22308.82196425  .00001272  00000+0  29012-3 0  9995
2 27424  98.2608 249.4668 0001523 101.4263 285.1535 14.57480555 90632
TDRS 10                 
1 27566U 02055A   22308.44782900  .00000085  00000+0  00000+0 0  9998
2 27566   8.4581  49.1586 0004279 325.9076  18.7049  1.00272796 72980
SORCE                   
1 27651U 03004A   22308.87797410  .00002951  00000+0  31095-3 0  9993
2 27651  39.9936 153.2040 0022243  16.7655 343.3865 14.90339100 74025
AURA                    
1 28376U 04026A   22308.85682377  .00001280  00000+0  29423-3 0  9992
2 28376  98.2229 250.2478 0001255  87.3289 272.8053 14.57109265973677
SWIFT                   
1 28485U 04047A   22308.59739175  .00007721  00000+0  46571-3 0  9995
2 28485  20.5579  45.9647 0010028 276.5923  83.3370 15.07401058984711
THEMIS A                
1 30580U 07004A   22308.44244466 -.00000184  00000+0  67968-2 0  9997
2 30580  13.0381 330.6472 8363946 194.7283 331.7645  0.87835088 29661
THEMIS D                
1 30797U 07004D   22308.70222318 -.00000324  00000+0  00000+0 0  9995
2 30797   8.8764 319.1973 8318431 209.4222  65.9298  0.87837290 29478
THEMIS E                
1 30798U 07004E   22308.70204878 -.00000365  00000+0  00000+0 0  9992
2 30798   9.9204 333.9618 8311102 196.6262  56.4649  0.87840798 54301
AIM                     
1 31304U 07015A   22308.73625146  .00019905  00000+0  92026-3 0  9998
2 31304  97.8553 233.3629 0001950 244.1366 115.9667 15.20204681852480
FGRST (GLAST)           
1 33053U 08029A   22308.64362490  .00003646  00000+0  18617-3 0  9996
2 33053  25.5830 290.9686 0011840   7.1353 352.9350 15.12630388794949
WISE                    
1 36119U 09071A   22308.66837239  .00011993  00000+0  34986-3 0  9991
2 36119  97.2268 340.3471 0003445 129.5148 230.6401 15.35486102717000
TDRS 11                 
1 39070U 13004A   22308.80581730  .00000069  00000+0  00000+0 0  9997
2 39070   2.8219 350.2702 0003787  72.3367  97.1654  1.00275081 33456
TDRS 12                 
1 39504U 14004A   22308.83241344 -.00000283  00000+0  00000+0 0  9996
2 39504   3.7528 349.8779 0001928 191.0951 121.5934  1.00264226 31036
GPM-CORE                
1 39574U 14009C   22308.87730516  .00031572  00000+0  45305-3 0  9991
2 39574  65.0001  70.3214 0012016 272.0033  87.9737 15.55918295493452
MMS 1                   
1 40482U 15011A   22306.69167637 -.00000247  00000+0  00000+0 0  9996
2 40482  30.3688  94.3565 8851665  64.4153 210.4426  0.28460652 13693
MMS 2                   
1 40483U 15011B   22308.63499237 -.00000080  00000+0  00000+0 0  9992
2 40483  30.2825  93.9511 8856298  65.2294  47.0555  0.28570025 13675
MMS 3                   
1 40484U 15011C   22308.63777015 -.00000079  00000+0  00000+0 0  9994
2 40484  30.2835  93.9371 8855277  65.2276  47.3862  0.28561041 13679
MMS 4                   
1 40485U 15011D   22308.64193682 -.00000080  00000+0  00000+0 0  9990
2 40485  30.2693  93.9165 8855764  65.2583  47.8242  0.28572179 13676
TDRS 13                 
1 42915U 17047A   22308.76657712 -.00000112  00000+0  00000+0 0  9999
2 42915   4.2875 334.9066 0014471 124.9130 208.7562  1.00272067 19103
JPSS-1                  
1 43013U 17073A   22308.83988380  .00000113  00000+0  74174-4 0  9992
2 43013  98.7282 245.2538 0001380  63.2586 296.8731 14.19556295257142
